NOAA 15                 
1 25338U 98030A   16092.51654303  .00000080  00000-0  52389-4 0  9995
2 25338  98.7836  96.5121 0011521  52.8094 307.4135 14.25713950930064
NOAA 18                 
1 28654U 05018A   16092.54848238  .00000022  00000-0  37291-4 0  9999
2 28654  99.1985  97.4848 0013552 227.0703 132.9332 14.12276531559919
METOP-A                 
1 29499U 06044A   16092.55120824  .00000013  00000-0  26125-4 0  9996
2 29499  98.7043 152.6206 0001633  51.0184  86.3343 14.21483121490399
NOAA 19                 
1 33591U 09005A   16092.49093137  .00000113  00000-0  86542-4 0  9993
2 33591  99.0318  48.6703 0015056  75.8338 284.4505 14.12057027368310
METOP-B                 
1 38771U 12049A   16091.80842252  .00000012  00000-0  25547-4 0  9990
2 38771  98.6979 151.9728 0002015  78.6862  32.8543 14.21487613183424
SARAL                   
1 39086U 13009A   16092.17374972  .00000013  00000-0  20995-4 0  9990
2 39086  98.5421 280.6420 0001151 131.1554 228.9729 14.32240091161842
